ONEWEB-0229             
1 48779U 21045N   25335.84509983 -.00000085  00000+0 -25883-3 0  9994
2 48779  87.8975 298.5620 0002004  84.4353 275.7005 13.15548118218460
ONEWEB-0228             
1 48780U 21045P   25335.42216244  .00001249  00000+0  32837-2 0  9992
2 48780  87.8982 298.6294 0001941  81.3065 278.8285 13.15558623218324
ONEWEB-0232             
1 48781U 21045Q   25335.85302872 -.00000098  00000+0 -29359-3 0  9992
2 48781  87.8994 298.5351 0001894  81.5700 278.5645 13.15547905218706
ONEWEB-0231             
1 48782U 21045R   25335.83084779  .00000048  00000+0  92770-4 0  9995
2 48782  87.8978 298.5837 0002143  81.8167 278.3206 13.15548317218390
ONEWEB-0234             
1 48783U 21045S   25335.64055852  .00000147  00000+0  35513-3 0  9996
2 48783  87.8982 298.5945 0001346  56.0013 304.1245 13.15547933218501
ONEWEB-0238             
1 48784U 21045T   25335.64082875  .00000070  00000+0  15204-3 0  9992
2 48784  87.8979 298.5885 0001597  74.0656 286.0650 13.15549103218400
ONEWEB-0240             
1 48785U 21045U   25335.81421057  .00000103  00000+0  24039-3 0  9994
2 48785  87.8996 298.5476 0002046  72.2355 287.8998 13.15549887218450
ONEWEB-0246             
1 48786U 21045V   25335.80866171  .00000119  00000+0  28123-3 0  9999
2 48786  87.8987 298.5595 0001970  84.8252 275.3103 13.15548975218326
